QIANFAN-33              
1 61566U 24185Q   25217.21135837  .00000170  00000+0  11346-3 0  9996
2 61566  88.9782  93.2696 0007935  25.1291 335.0271 13.96407703 51082
QIANFAN-34              
1 61567U 24185R   25216.92272640  .00000278  00000+0  17290-3 0  9991
2 61567  88.9759  93.0367 0007211  38.3875 321.7817 14.02158238 51162
QIANFAN-35              
1 61568U 24185S   25216.83415410  .00000501  00000+0  19752-3 0  9990
2 61568  88.9783  92.1477 0007237  12.5061 347.6312 14.27659711 51640
QIANFAN-36              
1 61569U 24185T   25217.19777631  .00000044  00000+0  45439-4 0  9991
2 61569  88.9772  94.5576 0008040  63.4059 296.7918 13.55544761 50429
QIANFAN-37              
1 62238U 24232B   25217.52710811  .00000065  00000+0  82364-4 0  9993
2 62238  88.9924  54.3966 0002603  93.9331 266.2117 13.50965228 81729
QIANFAN-38              
1 62239U 24232C   25216.88535275  .00000059  00000+0  72477-4 0  9998
2 62239  88.9931  54.3688 0013590 203.7267 156.3260 13.50953616 81697
QIANFAN-39              
1 62240U 24232D   25217.52555919  .00000151  00000+0  57779-4 0  9990
2 62240  88.9928  52.1069 0017663 135.9318 224.3287 14.25230056 82989
QIANFAN-40              
1 62241U 24232E   25217.21445939  .00000057  00000+0  69967-4 0  9994
2 62241  88.9958  53.8834 0012429 210.7114 149.3311 13.50959734 82108
